SOYUZ-MS 28             
1 66664U 25275A   25355.95645853  .00010990  00000+0  20227-3 0  9998
2 66664  51.6324  96.8363 0003164 283.4657  76.5979 15.49714244  1280
1998-067XS              
1 66906U 98067XS  25355.68643555  .00025109  00000+0  43070-3 0  9992
2 66906  51.6318  98.0337 0002929 244.8838 115.1848 15.51020739  3006
1998-067XT              
1 66907U 98067XT  25355.67683833  .00058863  00000+0  94407-3 0  9998
2 66907  51.6315  97.9690 0003833 280.3147  79.7410 15.52487606  3008
1998-067XU              
1 66908U 98067XU  25355.03229124  .00049977  00000+0  80289-3 0  9997
2 66908  51.6311 101.1653 0003904 276.2494  83.8051 15.52510982  2909
SILVERSAT               
1 66909U 98067XV  25356.25402512  .00078426  00000+0  12357-2 0  9998
2 66909  51.6306  95.0749 0003812 288.8858  71.1718 15.52855909  3094
1998-067XW              
1 66910U 98067XW  25355.67303722  .00057100  00000+0  90790-3 0  9992
2 66910  51.6307  97.9437 0004064 256.0944 103.9594 15.52740161  3005
1998-067XX              
1 66911U 98067XX  25355.54157806  .00062319  00000+0  97482-3 0  9992
2 66911  51.6308  98.5657 0003822 260.7512  99.3046 15.53156659  2971
1998-067XY              
1 66912U 98067XY  25355.48709823  .00043530  00000+0  71547-3 0  9996
2 66912  51.6317  98.9521 0004003 271.7448  88.3083 15.51934859  2960
